[{"OBJECT_NAME":"STARLINK-31592","OBJECT_ID":"2024-068N","EPOCH":"2026-03-09T06:11:26.459232","MEAN_MOTION":15.27575645,"ECCENTRICITY":0.00011826,"INCLINATION":43.0027,"RA_OF_ASC_NODE":37.2216,"ARG_OF_PERICENTER":275.3855,"MEAN_ANOMALY":84.6862,"EPHEMERIS_TYPE":0,"CLASSIFICATION_TYPE":"U","NORAD_CAT_ID":59467,"ELEMENT_SET_NO":999,"REV_AT_EPOCH":10845,"BSTAR":-3.9478675e-5,"MEAN_MOTION_DOT":-1.348e-5,"MEAN_MOTION_DDOT":0},{"OBJECT_NAME":"FLOCK 4G-2","OBJECT_ID":"2025-009BE","EPOCH":"2026-03-09T15:53:23.273952","MEAN_MOTION":15.2767526,"ECCENTRICITY":0.00031811,"INCLINATION":97.4044,"RA_OF_ASC_NODE":151.2221,"ARG_OF_PERICENTER":329.2677,"MEAN_ANOMALY":30.8376,"EPHEMERIS_TYPE":0,"CLASSIFICATION_TYPE":"U","NORAD_CAT_ID":62661,"ELEMENT_SET_NO":999,"REV_AT_EPOCH":12132,"BSTAR":0.00051068481,"MEAN_MOTION_DOT":0.00013752,"MEAN_MOTION_DDOT":0}]
